[{"OBJECT_NAME":"STARLINK-34915","OBJECT_ID":"2025-175P","EPOCH":"2026-03-09T15:27:15.778368","MEAN_MOTION":15.0567095,"ECCENTRICITY":0.0002365,"INCLINATION":97.602,"RA_OF_ASC_NODE":302.6143,"ARG_OF_PERICENTER":82.3451,"MEAN_ANOMALY":277.8045,"EPHEMERIS_TYPE":0,"CLASSIFICATION_TYPE":"U","NORAD_CAT_ID":65187,"ELEMENT_SET_NO":999,"REV_AT_EPOCH":3263,"BSTAR":0.00024839,"MEAN_MOTION_DOT":3.527e-5,"MEAN_MOTION_DDOT":0},{"OBJECT_NAME":"ATLAS 28E DEB","OBJECT_ID":"1990-031G","EPOCH":"2026-03-09T13:30:42.820704","MEAN_MOTION":15.01077751,"ECCENTRICITY":0.00267601,"INCLINATION":90.3468,"RA_OF_ASC_NODE":293.9289,"ARG_OF_PERICENTER":41.2715,"MEAN_ANOMALY":319.0536,"EPHEMERIS_TYPE":0,"CLASSIFICATION_TYPE":"U","NORAD_CAT_ID":20575,"ELEMENT_SET_NO":999,"REV_AT_EPOCH":38014,"BSTAR":0.00040945673,"MEAN_MOTION_DOT":5.29e-5,"MEAN_MOTION_DDOT":0}]
